[{"OBJECT_NAME":"AE2A","OBJECT_ID":"2025-135BR","EPOCH":"2026-03-09T22:31:40.668960","MEAN_MOTION":14.96072328,"ECCENTRICITY":0.00037442,"INCLINATION":97.7564,"RA_OF_ASC_NODE":184.9238,"ARG_OF_PERICENTER":309.3456,"MEAN_ANOMALY":50.7433,"EPHEMERIS_TYPE":0,"CLASSIFICATION_TYPE":"U","NORAD_CAT_ID":64591,"ELEMENT_SET_NO":999,"REV_AT_EPOCH":3911,"BSTAR":0.00073209812,"MEAN_MOTION_DOT":8.175e-5,"MEAN_MOTION_DDOT":0},{"OBJECT_NAME":"PEGASUS DEB","OBJECT_ID":"1994-029AFX","EPOCH":"2026-03-01T06:33:22.731264","MEAN_MOTION":14.85739755,"ECCENTRICITY":0.0106553,"INCLINATION":81.851,"RA_OF_ASC_NODE":257.2393,"ARG_OF_PERICENTER":271.4617,"MEAN_ANOMALY":87.4394,"EPHEMERIS_TYPE":0,"CLASSIFICATION_TYPE":"U","NORAD_CAT_ID":39924,"ELEMENT_SET_NO":999,"REV_AT_EPOCH":63095,"BSTAR":0.00041812,"MEAN_MOTION_DOT":4.045e-5,"MEAN_MOTION_DDOT":0}]
